[Satellite]
VERSION=1.1
NAME=IRIDIUM 73
NICKNAME=IRIDIUM 73
TLE1=1 25344U 98032C   22342.54727897  .00000522  00000+0  13090-3 0  9996
TLE2=2 25344  86.4431  77.3021 0001877 110.6434 249.4972 14.49581785296969
STATUS=2
